{
    "links": {
        "self": "http://www.neowsapp.com/rest/v1/neo/3989289?api_key=iIulBulltgU6a56xZRHN4H3l9WmuAYTsLGpBGhQ2"
    },
    "id": "3989289",
    "neo_reference_id": "3989289",
    "name": "(2020 BB13)",
    "designation": "2020 BB13",
    "nasa_jpl_url": "http://ssd.jpl.nasa.gov/sbdb.cgi?sstr=3989289",
    "absolute_magnitude_h": 22.644,
    "estimated_diameter": {
        "kilometers": {
            "estimated_diameter_min": 0.0786601874,
            "estimated_diameter_max": 0.1758895261
        },
        "meters": {
            "estimated_diameter_min": 78.6601873762,
            "estimated_diameter_max": 175.8895260961
        },
        "miles": {
            "estimated_diameter_min": 0.0488771593,
            "estimated_diameter_max": 0.1092926507
        },
        "feet": {
            "estimated_diameter_min": 258.0714891514,
            "estimated_diameter_max": 577.0653927972
        }
    },
    "is_potentially_hazardous_asteroid": false,
    "close_approach_data": [
        {
            "close_approach_date": "1991-01-31",
            "close_approach_date_full": "1991-Jan-31 07:45",
            "epoch_date_close_approach": 665307900000,
            "relative_velocity": {
                "kilometers_per_second": "14.4512041138",
                "kilometers_per_hour": "52024.3348097866",
                "miles_per_hour": "32325.8984822254"
            },
            "miss_distance": {
                "astronomical": "0.3616088236",
                "lunar": "140.6658323804",
                "kilometers": "54095909.783765732",
                "miles": "33613639.6544498216"
            },
            "orbiting_body": "Earth"
        },
        {
            "close_approach_date": "2008-02-07",
            "close_approach_date_full": "2008-Feb-07 12:13",
            "epoch_date_close_approach": 1202386380000,
            "relative_velocity": {
                "kilometers_per_second": "15.1210956226",
                "kilometers_per_hour": "54435.9442415306",
                "miles_per_hour": "33824.3787983"
            },
            "miss_distance": {
                "astronomical": "0.4153853625",
                "lunar": "161.5849060125",
                "kilometers": "62140765.459177875",
                "miles": "38612481.171789675"
            },
            "orbiting_body": "Earth"
        },
        {
            "close_approach_date": "2020-02-02",
            "close_approach_date_full": "2020-Feb-02 06:58",
            "epoch_date_close_approach": 1580626680000,
            "relative_velocity": {
                "kilometers_per_second": "14.2231720376",
                "kilometers_per_hour": "51203.4193354669",
                "miles_per_hour": "31815.8135309739"
            },
            "miss_distance": {
                "astronomical": "0.3002892364",
                "lunar": "116.8125129596",
                "kilometers": "44922630.149366468",
                "miles": "27913628.0026865384"
            },
            "orbiting_body": "Earth"
        },
        {
            "close_approach_date": "2049-02-03",
            "close_approach_date_full": "2049-Feb-03 02:25",
            "epoch_date_close_approach": 2495931900000,
            "relative_velocity": {
                "kilometers_per_second": "14.1880467415",
                "kilometers_per_hour": "51076.9682692301",
                "miles_per_hour": "31737.2417559558"
            },
            "miss_distance": {
                "astronomical": "0.2764549274",
                "lunar": "107.5409667586",
                "kilometers": "41357068.290044638",
                "miles": "25698090.5991384844"
            },
            "orbiting_body": "Earth"
        }
    ],
    "orbital_data": {
        "orbit_id": "5",
        "orbit_determination_date": "2020-03-11 05:59:33",
        "first_observation_date": "2020-01-26",
        "last_observation_date": "2020-02-23",
        "data_arc_in_days": 28,
        "observations_used": 41,
        "orbit_uncertainty": "6",
        "minimum_orbit_intersection": ".276333",
        "jupiter_tisserand_invariant": "3.890",
        "epoch_osculation": "2459000.5",
        "eccentricity": ".2992953719497021",
        "semi_major_axis": "1.799870789054935",
        "inclination": "27.13667841460735",
        "ascending_node_longitude": "312.5988214439832",
        "orbital_period": "881.9834174397894",
        "perihelion_distance": "1.261177791783335",
        "perihelion_argument": "184.8209105398042",
        "aphelion_distance": "2.338563786326536",
        "perihelion_time": "2458894.820497602441",
        "mean_anomaly": "43.13530176514747",
        "mean_motion": ".4081709393641477",
        "equinox": "J2000",
        "orbit_class": {
            "orbit_class_type": "AMO",
            "orbit_class_description": "Near-Earth asteroid orbits similar to that of 1221 Amor",
            "orbit_class_range": "1.017 AU < q (perihelion) < 1.3 AU"
        }
    },
    "is_sentry_object": false
}